0 FENGYUN 1C DEB
1 30308U 99025ZV  13282.56364161  .00011467  00000-0  75988-2 0   794
2 30308 100.2439 143.8670 0174728 345.7143 076.0644 13.94469581339024
0 FENGYUN 1C DEB
1 30308U 99025ZV  13284.08872441  .00010549  00000-0  69908-2 0   805
2 30308 100.2449 145.5581 0174743 341.9626 171.9327 13.94495809339234
0 FENGYUN 1C DEB
1 30308U 99025ZV  13285.28764522  .00009429  00000-0  62531-2 0   819
2 30308 100.2451 146.8869 0174527 339.0463 070.5585 13.94517835339400
0 FENGYUN 1C DEB
1 30308U 99025ZV  13286.57948318  .00009443  00000-0  62603-2 0   826
2 30308 100.2452 148.3192 0174410 335.8810 075.7533 13.94540355339580
0 FENGYUN 1C DEB
1 30308U 99025ZV  13287.58429053  .00012502  00000-0  82720-2 0   831
2 30308 100.2451 149.4335 0174276 333.4221 080.0948 13.94560882339722
0 FENGYUN 1C DEB
1 30308U 99025ZV  13288.58865189  .00012803  00000-0  84677-2 0   844
2 30308 100.2452 150.5473 0174107 330.9616 082.2841 13.94587727339860
0 FENGYUN 1C DEB
1 30308U 99025ZV  13289.59284618  .00013785  00000-0  91133-2 0   854
2 30308 100.2457 151.6618 0173902 328.5022 083.7228 13.94607502340001
0 FENGYUN 1C DEB
1 30308U 99025ZV  13290.59780404  .00013397  00000-0  88570-2 0   861
2 30308 100.2462 152.7765 0173687 326.0599 089.0541 13.94631039340148
0 FENGYUN 1C DEB
1 30308U 99025ZV  13291.60186541  .00011479  00000-0  75952-2 0   876
2 30308 100.2466 153.8909 0173481 323.6033 089.9779 13.94651503340287
0 FENGYUN 1C DEB
1 30308U 99025ZV  13293.19451285  .00011303  00000-0  74793-2 0   881
2 30308 100.2469 155.6577 0173082 319.7226 166.0632 13.94686731340509
0 FENGYUN 1C DEB
1 30308U 99025ZV  13294.84529427  .00014566  00000-0  96243-2 0   897
2 30308 100.2474 157.4896 0172625 315.6776 174.2442 13.94719193340730
0 FENGYUN 1C DEB
1 30308U 99025ZV  13295.84940541  .00014343  00000-0  94781-2 0   902
2 30308 100.2480 158.6039 0172287 313.2330 175.7351 13.94743786340878
